STARLINK-1403
1 25701C 20035AW  21325.12082990 -.00012817  00000-0 -85878-3 0  3254
2 25701  53.0520 242.6847 0002028  70.9684  11.0022 15.06408539    11
